[{"OBJECT_NAME":"STARLINK-36418","OBJECT_ID":"2026-005U","EPOCH":"2026-03-09T12:24:33.246144","MEAN_MOTION":15.27602228,"ECCENTRICITY":0.00018181,"INCLINATION":43.0021,"RA_OF_ASC_NODE":238.6486,"ARG_OF_PERICENTER":284.6926,"MEAN_ANOMALY":75.3724,"EPHEMERIS_TYPE":0,"CLASSIFICATION_TYPE":"U","NORAD_CAT_ID":67422,"ELEMENT_SET_NO":999,"REV_AT_EPOCH":867,"BSTAR":0.0009444374,"MEAN_MOTION_DOT":0.00025836,"MEAN_MOTION_DDOT":0},{"OBJECT_NAME":"COSMOS 2251 DEB","OBJECT_ID":"1993-036SV","EPOCH":"2026-03-09T21:55:42.811680","MEAN_MOTION":15.15006345,"ECCENTRICITY":0.00579573,"INCLINATION":74.0283,"RA_OF_ASC_NODE":1.8812,"ARG_OF_PERICENTER":55.6817,"MEAN_ANOMALY":304.9843,"EPHEMERIS_TYPE":0,"CLASSIFICATION_TYPE":"U","NORAD_CAT_ID":34452,"ELEMENT_SET_NO":999,"REV_AT_EPOCH":91981,"BSTAR":0.0011020825,"MEAN_MOTION_DOT":0.00021495,"MEAN_MOTION_DDOT":0}]
